FENGYUN 1C DEB          
1 32096U 99025CQN 17345.08671806  .00000513  00000-0  46161-3 0  9991
2 32096  99.3223  23.2773 0145487  61.4035 300.1669 13.83983918524203
